{
    "links": {
        "self": "http://www.neowsapp.com/rest/v1/neo/3648982?api_key=iIulBulltgU6a56xZRHN4H3l9WmuAYTsLGpBGhQ2"
    },
    "id": "3648982",
    "neo_reference_id": "3648982",
    "name": "(2013 TW68)",
    "designation": "2013 TW68",
    "nasa_jpl_url": "http://ssd.jpl.nasa.gov/sbdb.cgi?sstr=3648982",
    "absolute_magnitude_h": 21.3,
    "estimated_diameter": {
        "kilometers": {
            "estimated_diameter_min": 0.1460679643,
            "estimated_diameter_max": 0.3266178974
        },
        "meters": {
            "estimated_diameter_min": 146.0679642714,
            "estimated_diameter_max": 326.6178974458
        },
        "miles": {
            "estimated_diameter_min": 0.090762397,
            "estimated_diameter_max": 0.2029508896
        },
        "feet": {
            "estimated_diameter_min": 479.2256199,
            "estimated_diameter_max": 1071.581062656
        }
    },
    "is_potentially_hazardous_asteroid": false,
    "close_approach_data": [
        {
            "close_approach_date": "2013-07-21",
            "close_approach_date_full": "2013-Jul-21 05:33",
            "epoch_date_close_approach": 1374384780000,
            "relative_velocity": {
                "kilometers_per_second": "11.8170368826",
                "kilometers_per_hour": "42541.3327774169",
                "miles_per_hour": "26433.5298027233"
            },
            "miss_distance": {
                "astronomical": "0.4552220088",
                "lunar": "177.0813614232",
                "kilometers": "68100242.893601256",
                "miles": "42315528.7369430928"
            },
            "orbiting_body": "Earth"
        }
    ],
    "orbital_data": {
        "orbit_id": "13",
        "orbit_determination_date": "2017-04-06 08:44:16",
        "first_observation_date": "2013-10-05",
        "last_observation_date": "2013-11-08",
        "data_arc_in_days": 34,
        "observations_used": 33,
        "orbit_uncertainty": "6",
        "minimum_orbit_intersection": ".23985",
        "jupiter_tisserand_invariant": "3.156",
        "epoch_osculation": "2459000.5",
        "eccentricity": ".5488815968283693",
        "semi_major_axis": "2.602536090939195",
        "inclination": "11.96066890041536",
        "ascending_node_longitude": "15.75984770552112",
        "orbital_period": "1533.534561333834",
        "perihelion_distance": "1.174051925541027",
        "perihelion_argument": "299.9995308057894",
        "aphelion_distance": "4.031020256337362",
        "perihelion_time": "2459559.913257919402",
        "mean_anomaly": "228.6767302617418",
        "mean_motion": ".2347518008898868",
        "equinox": "J2000",
        "orbit_class": {
            "orbit_class_type": "AMO",
            "orbit_class_description": "Near-Earth asteroid orbits similar to that of 1221 Amor",
            "orbit_class_range": "1.017 AU < q (perihelion) < 1.3 AU"
        }
    },
    "is_sentry_object": false
}